{"fetched_at":"2026-03-29T16:36:15Z","count":15609,"tles":[{"name":"STARLINK-3182","line1":"1 51469U 22010P   26087.70718573  .00001859  00000+0  13485-3 0  9997","line2":"2 51469  53.2166 193.7475 0001211  88.5867 271.5264 15.08843613229697","category":"Starlink"}]}